[
    {
        "Altitude(m)": 569876.3353863871,
        "Argument of Periapsis(deg)": 0.019868973332140504,
        "Eccentricity": 0.0,
        "Inclination(deg)": 53.0,
        "Latitude(deg)": -48.15957099263309,
        "Longitude(deg)": 59.44578755195249,
        "Mean Anomaly(deg)": -111.54332139726715,
        "RAAN(deg)": 284.97043010558406,
        "Satellite Name": "Starlink Shell 1 1267",
        "Satellite Number": 1267,
        "Semi-Major Axis(m)": 6931778.249405717,
        "Time(s)": 570
    },
    {
        "Altitude(m)": 569985.2518121632,
        "Argument of Periapsis(deg)": 0.02021755181165174,
        "Eccentricity": 0.0,
        "Inclination(deg)": 53.0,
        "Latitude(deg)": -48.429827576816415,
        "Longitude(deg)": 60.24935731949059,
        "Mean Anomaly(deg)": -110.91649019371047,
        "RAAN(deg)": 284.96991133550654,
        "Satellite Name": "Starlink Shell 1 1267",
        "Satellite Number": 1267,
        "Semi-Major Axis(m)": 6931778.249405717,
        "Time(s)": 580
    },
    {
        "Altitude(m)": 570091.4277775428,
        "Argument of Periapsis(deg)": 0.020566130291162974,
        "Eccentricity": 0.0,
        "Inclination(deg)": 53.0,
        "Latitude(deg)": -48.69380206644854,
        "Longitude(deg)": 61.06181031788844,
        "Mean Anomaly(deg)": -110.28965899015385,
        "RAAN(deg)": 284.96939256542913,
        "Satellite Name": "Starlink Shell 1 1267",
        "Satellite Number": 1267,
        "Semi-Major Axis(m)": 6931778.249405717,
        "Time(s)": 590
    },
    {
        "Altitude(m)": 570194.8211505435,
        "Argument of Periapsis(deg)": 0.020914708770674213,
        "Eccentricity": 0.0,
        "Inclination(deg)": 53.0,
        "Latitude(deg)": -48.951371373106596,
        "Longitude(deg)": 61.88310815814801,
        "Mean Anomaly(deg)": -109.66282778659708,
        "RAAN(deg)": 284.9688737953516,
        "Satellite Name": "Starlink Shell 1 1267",
        "Satellite Number": 1267,
        "Semi-Major Axis(m)": 6931778.249405717,
        "Time(s)": 600
    },
    {
        "Altitude(m)": 570295.3908854472,
        "Argument of Periapsis(deg)": 0.021263287250185448,
        "Eccentricity": 0.0,
        "Inclination(deg)": 53.0,
        "Latitude(deg)": -49.2024123643651,
        "Longitude(deg)": 62.71319985426642,
        "Mean Anomaly(deg)": -109.03599658304039,
        "RAAN(deg)": 284.9683550252741,
        "Satellite Name": "Starlink Shell 1 1267",
        "Satellite Number": 1267,
        "Semi-Major Axis(m)": 6931778.249405717,
        "Time(s)": 610
    },
    {
        "Altitude(m)": 570393.0970406818,
        "Argument of Periapsis(deg)": 0.021611865729696686,
        "Eccentricity": 0.0,
        "Inclination(deg)": 53.0,
        "Latitude(deg)": -49.44680205616051,
        "Longitude(deg)": 63.55202182275234,
        "Mean Anomaly(deg)": -108.40916537948367,
        "RAAN(deg)": 284.9678362551967,
        "Satellite Name": "Starlink Shell 1 1267",
        "Satellite Number": 1267,
        "Semi-Major Axis(m)": 6931778.249405717,
        "Time(s)": 620
    },
    {
        "Altitude(m)": 570487.9007962411,
        "Argument of Periapsis(deg)": 0.02196044420920792,
        "Eccentricity": 0.0,
        "Inclination(deg)": 53.0,
        "Latitude(deg)": -49.68441781590838,
        "Longitude(deg)": 64.39949622215421,
        "Mean Anomaly(deg)": -107.78233417592699,
        "RAAN(deg)": 284.9673174851192,
        "Satellite Name": "Starlink Shell 1 1267",
        "Satellite Number": 1267,
        "Semi-Major Axis(m)": 6931778.249405717,
        "Time(s)": 630
    },
    {
        "Altitude(m)": 570579.7644706052,
        "Argument of Periapsis(deg)": 0.02230902268871916,
        "Eccentricity": 0.0,
        "Inclination(deg)": 53.0,
        "Latitude(deg)": -49.915137576113366,
        "Longitude(deg)": 65.25553183963522,
        "Mean Anomaly(deg)": -107.15550297237023,
        "RAAN(deg)": 284.9667987150417,
        "Satellite Name": "Starlink Shell 1 1267",
        "Satellite Number": 1267,
        "Semi-Major Axis(m)": 6931778.249405717,
        "Time(s)": 640
    },
    {
        "Altitude(m)": 570668.6515371565,
        "Argument of Periapsis(deg)": 0.022657601168230398,
        "Eccentricity": 0.0,
        "Inclination(deg)": 53.0,
        "Latitude(deg)": -50.138840058121104,
        "Longitude(deg)": 66.1200224864855,
        "Mean Anomaly(deg)": -106.5286717688135,
        "RAAN(deg)": 284.9662799449643,
        "Satellite Name": "Starlink Shell 1 1267",
        "Satellite Number": 1267,
        "Semi-Major Axis(m)": 6931778.249405717,
        "Time(s)": 650
    },
    {
        "Altitude(m)": 570754.5266400609,
        "Argument of Periapsis(deg)": 0.023006179647741636,
        "Eccentricity": 0.0,
        "Inclination(deg)": 53.0,
        "Latitude(deg)": -50.3554050055515,
        "Longitude(deg)": 66.99284710993841,
        "Mean Anomaly(deg)": -105.90184056525682,
        "RAAN(deg)": 284.9657611748868,
        "Satellite Name": "Starlink Shell 1 1267",
        "Satellite Number": 1267,
        "Semi-Major Axis(m)": 6931778.249405717,
        "Time(s)": 660
    },
    {
        "Altitude(m)": 570837.3556096773,
        "Argument of Periapsis(deg)": 0.023354758127252868,
        "Eccentricity": 0.0,
        "Inclination(deg)": 53.0,
        "Latitude(deg)": -50.564713426847995,
        "Longitude(deg)": 67.87386994536537,
        "Mean Anomaly(deg)": -105.27500936170003,
        "RAAN(deg)": 284.9652424048093,
        "Satellite Name": "Starlink Shell 1 1267",
        "Satellite Number": 1267,
        "Semi-Major Axis(m)": 6931778.249405717,
        "Time(s)": 670
    },
    {
        "Altitude(m)": 570917.1054773985,
        "Argument of Periapsis(deg)": 0.023703336606764106,
        "Eccentricity": 0.0,
        "Inclination(deg)": 53.0,
        "Latitude(deg)": -50.766647846267205,
        "Longitude(deg)": 68.76293920107373,
        "Mean Anomaly(deg)": -104.64817815814331,
        "RAAN(deg)": 284.96472363473185,
        "Satellite Name": "Starlink Shell 1 1267",
        "Satellite Number": 1267,
        "Semi-Major Axis(m)": 6931778.249405717,
        "Time(s)": 680
    },
    {
        "Altitude(m)": 570993.7444900023,
        "Argument of Periapsis(deg)": 0.024051915086275345,
        "Eccentricity": 0.0,
        "Inclination(deg)": 53.0,
        "Latitude(deg)": -50.96109256251347,
        "Longitude(deg)": 69.65988730653802,
        "Mean Anomaly(deg)": -104.02134695458665,
        "RAAN(deg)": 284.96420486465433,
        "Satellite Name": "Starlink Shell 1 1267",
        "Satellite Number": 1267,
        "Semi-Major Axis(m)": 6931778.249405717,
        "Time(s)": 690
    },
    {
        "Altitude(m)": 571067.2421234342,
        "Argument of Periapsis(deg)": 0.024400493565786583,
        "Eccentricity": 0.0,
        "Inclination(deg)": 53.0,
        "Latitude(deg)": -51.14793391411182,
        "Longitude(deg)": 70.5645312162102,
        "Mean Anomaly(deg)": -103.39451575102999,
        "RAAN(deg)": 284.9636860945769,
        "Satellite Name": "Starlink Shell 1 1267",
        "Satellite Number": 1267,
        "Semi-Major Axis(m)": 6931778.249405717,
        "Time(s)": 700
    },
    {
        "Altitude(m)": 571137.5690960841,
        "Argument of Periapsis(deg)": 0.024749072045297815,
        "Eccentricity": 0.0,
        "Inclination(deg)": 53.0,
        "Latitude(deg)": -51.32706055049626,
        "Longitude(deg)": 71.47667126091524,
        "Mean Anomaly(deg)": -102.76768454747324,
        "RAAN(deg)": 284.96316732449947,
        "Satellite Name": "Starlink Shell 1 1267",
        "Satellite Number": 1267,
        "Semi-Major Axis(m)": 6931778.249405717,
        "Time(s)": 710
    },
    {
        "Altitude(m)": 571204.6973814877,
        "Argument of Periapsis(deg)": 0.025097650524809053,
        "Eccentricity": 0.0,
        "Inclination(deg)": 53.0,
        "Latitude(deg)": -51.49836370767235,
        "Longitude(deg)": 72.39609157723939,
        "Mean Anomaly(deg)": -102.14085334391645,
        "RAAN(deg)": 284.96264855442195,
        "Satellite Name": "Starlink Shell 1 1267",
        "Satellite Number": 1267,
        "Semi-Major Axis(m)": 6931778.249405717,
        "Time(s)": 720
    },
    {
        "Altitude(m)": 571268.600220487,
        "Argument of Periapsis(deg)": 0.02544622900432029,
        "Eccentricity": 0.0,
        "Inclination(deg)": 53.0,
        "Latitude(deg)": -51.66173748720688,
        "Longitude(deg)": 73.32256060641448,
        "Mean Anomaly(deg)": -101.51402214035977,
        "RAAN(deg)": 284.9621297843444,
        "Satellite Name": "Starlink Shell 1 1267",
        "Satellite Number": 1267,
        "Semi-Major Axis(m)": 6931778.249405717,
        "Time(s)": 730
    },
    {
        "Altitude(m)": 571329.2521328655,
        "Argument of Periapsis(deg)": 0.02579480748383153,
        "Eccentricity": 0.0,
        "Inclination(deg)": 53.0,
        "Latitude(deg)": -51.817079137191854,
        "Longitude(deg)": 74.25583015383826,
        "Mean Anomaly(deg)": -100.88719093680317,
        "RAAN(deg)": 284.961611014267,
        "Satellite Name": "Starlink Shell 1 1267",
        "Satellite Number": 1267,
        "Semi-Major Axis(m)": 6931778.249405717,
        "Time(s)": 740
    },
    {
        "Altitude(m)": 571386.6289283825,
        "Argument of Periapsis(deg)": 0.026143385963342765,
        "Eccentricity": 0.0,
        "Inclination(deg)": 53.0,
        "Latitude(deg)": -51.96428933372786,
        "Longitude(deg)": 75.19563603852784,
        "Mean Anomaly(deg)": -100.26035973324628,
        "RAAN(deg)": 284.96109224418956,
        "Satellite Name": "Starlink Shell 1 1267",
        "Satellite Number": 1267,
        "Semi-Major Axis(m)": 6931778.249405717,
        "Time(s)": 750
    }
]